IRIDIUM 159             
1 43578U 18061K   24089.89141879  .00000042  00000+0  80078-5 0  9996
2 43578  86.4000  34.9055 0002048  84.6526 275.4903 14.34214098297383
IRIDIUM 180             
1 43922U 19002A   24089.96068480  .00000823  00000+0  28677-3 0  9991
2 43922  86.3991 331.8031 0002135  85.0720 275.0719 14.34215073273003
IRIDIUM 176             
1 43923U 19002B   24090.20732327  .00001958  00000+0  30662-3 0  9996
2 43923  86.6117 331.7273 0002327  91.9727 268.1756 14.72255560280223
IRIDIUM 168             
1 43924U 19002C   24090.16364461  .00000335  00000+0  11244-3 0  9995
2 43924  86.3992 331.7728 0002071  85.2315 274.9117 14.34216343273011
IRIDIUM 173             
1 43925U 19002D   24090.43003702  .00000688  00000+0  23864-3 0  9996
2 43925  86.3989 331.5836 0002064  85.4350 274.7082 14.34216369273049
IRIDIUM 169             
1 43926U 19002E   24090.24897493  .00000814  00000+0  25955-3 0  9998
2 43926  86.4286   3.2520 0004223 108.3720 251.7938 14.38629648273923
IRIDIUM 172             
1 43927U 19002F   24089.93530891  .00000121  00000+0  36100-4 0  9995
2 43927  86.3990 331.7957 0002027  84.8865 275.2562 14.34211475272975
IRIDIUM 175             
1 43928U 19002G   24090.13353478  .00002011  00000+0  31493-3 0  9993
2 43928  86.1485 309.3680 0002288  85.9622 274.1856 14.72256309280205
